0 IRIDIUM 33 DEB
1 35744U 97051RX  13283.84409093  .00001598  00000-0  45931-3 0  5128
2 35744 086.3361 109.4978 0035285 354.8895 063.0468 14.43922596229415
0 IRIDIUM 33 DEB
1 35744U 97051RX  13285.31105448  .00001566  00000-0  45015-3 0  5138
2 35744 086.3360 108.8646 0035108 349.9234 128.6070 14.43925734229622
0 IRIDIUM 33 DEB
1 35744U 97051RX  13286.82506056  .00001882  00000-0  54204-3 0  5147
2 35744 086.3360 108.2110 0034959 344.7528 078.7770 14.43930071229840
0 IRIDIUM 33 DEB
1 35744U 97051RX  13288.29101976  .00002666  00000-0  76997-3 0  5157
2 35744 086.3362 107.5781 0034822 339.7565 139.2018 14.43938362230056
0 IRIDIUM 33 DEB
1 35744U 97051RX  13289.80373964  .00002210  00000-0  63739-3 0  5169
2 35744 086.3364 106.9250 0034695 334.5370 082.8064 14.43946717230278
0 IRIDIUM 33 DEB
1 35744U 97051RX  13291.27114706  .00002525  00000-0  72896-3 0  5174
2 35744 086.3360 106.2914 0034721 329.7741 150.6072 14.43949863230483
0 IRIDIUM 33 DEB
1 35744U 97051RX  13292.78354287  .00002693  00000-0  77787-3 0  5182
2 35744 086.3364 105.6385 0034609 324.5458 092.6120 14.43955975230700
0 IRIDIUM 33 DEB
1 35744U 97051RX  13294.79443410  .00003187  00000-0  92144-3 0  5196
2 35744 086.3369 104.7705 0034471 317.5892 106.0421 14.43965359230994
